NORAD_CAT_ID,OBJECT_NAME,OBJECT_TYPE,EPOCH,MEAN_MOTION,ECCENTRICITY,INCLINATION,RA_OF_ASC_NODE,ARG_OF_PERICENTER,MEAN_ANOMALY,BSTAR,MEAN_MOTION_DOT,MEAN_MOTION_DDOT,TLE_LINE0,TLE_LINE1,TLE_LINE2,SEMIMAJOR_AXIS,PERIOD,APOGEE,PERIGEE,DECAYED
53156.0,STARLINK-4087,PAYLOAD,2022-11-28 04:04:57,15.08841266,0.0002129,53.2179,139.9849,57.2614,302.8583,-3.9019e-06,-3.5000000000000016e-06,0.0,0 STARLINK-4087,1 53156U 22083AA  22332.17011522 -.00000350  00000-0 -39019-5 0  9993,2 53156  53.2179 139.9849 0002129  57.2614 302.8583 15.08841266 21206,6917.877,95.437,541.214,538.269,0.0
53156.0,STARLINK-4087,PAYLOAD,2022-11-28 18:23:25,15.08845476,0.0002183,53.2182,137.3081,57.1935,302.9267,-1.6407e-05,-5.49e-06,0.0,0 STARLINK-4087,1 53156U 22083AA  22332.76627169 -.00000549  00000-0 -16407-4 0  9993,2 53156  53.2182 137.3081 0002183  57.1935 302.9267 15.08845476 20661,6917.864000000001,95.437,541.239,538.2180000000002,0.0
53156.0,STARLINK-4087,PAYLOAD,2022-11-29 03:55:45,15.08832888,0.0002063,53.2176,135.5251,59.6243,300.4953,-9.5845e-05,-1.813e-05,0.0,0 STARLINK-4087,1 53156U 22083AA  22333.16372238 -.00001813  00000-0 -95845-4 0  9990,2 53156  53.2176 135.5251 0002063  59.6243 300.4953 15.08832888 21354,6917.901999999999,95.438,541.194,538.34,0.0
53156.0,STARLINK-4087,PAYLOAD,2022-11-29 19:49:37,15.08836963,0.0001942,53.2172,132.5514,62.6007,297.5183,-6.7944e-05,-1.369e-05,0.0,0 STARLINK-4087,1 53156U 22083AA  22333.82612337 -.00001369  00000-0 -67944-4 0  9995,2 53156  53.2172 132.5514 0001942  62.6007 297.5183 15.08836963 20826,6917.89,95.438,541.0980000000002,538.411,0.0
53156.0,STARLINK-4087,PAYLOAD,2022-11-30 10:08:05,15.08842502,0.0002291,53.2174,129.8752,62.2396,297.8828,-6.9041e-05,-1.387e-05,0.0,0 STARLINK-4087,1 53156U 22083AA  22334.42228309 -.00001387  00000-0 -69041-4 0  9994,2 53156  53.2174 129.8752 0002291  62.2396 297.8828 15.08842502 21541,6917.873000000001,95.437,541.323,538.153,0.0
53156.0,STARLINK-4087,PAYLOAD,2022-11-30 14:54:14,15.08839165,0.0002052,53.2176,128.9832,60.624,299.4957,2.1665e-05,5.7e-07,0.0,0 STARLINK-4087,1 53156U 22083AA  22334.62100184  .00000057  00000-0  21665-4 0  9997,2 53156  53.2176 128.9832 0002052  60.6240 299.4957 15.08839165 20942,6917.8830000000025,95.438,541.1669999999998,538.328,0.0
53156.0,STARLINK-4087,PAYLOAD,2022-12-01 09:58:51,15.0884038,0.0002024,53.218,125.4148,59.324,300.7951,0.0001423,1.977e-05,0.0,0 STARLINK-4087,1 53156U 22083AA  22335.41587813  .00001977  00000-0  14230-3 0  9994,2 53156  53.2180 125.4148 0002024  59.3240 300.7951 15.08840380 21068,6917.879,95.438,541.144,538.344,0.0
53156.0,STARLINK-4087,PAYLOAD,2022-12-01 16:20:24,15.08846071,0.0002051,53.2179,124.2257,59.2109,300.9085,0.00016449,2.331e-05,0.0,0 STARLINK-4087,1 53156U 22083AA  22335.68083335  .00002331  00000-0  16449-3 0  9992,2 53156  53.2179 124.2257 0002051  59.2109 300.9085 15.08846071 21734,6917.861999999999,95.437,541.146,538.308,0.0
53156.0,STARLINK-4087,PAYLOAD,2022-12-02 09:49:38,15.08843527,0.0001931,53.2175,120.9542,59.7608,300.3575,3.0593e-05,1.99e-06,0.0,0 STARLINK-4087,1 53156U 22083AA  22336.40947751  .00000199  00000-0  30593-4 0  9991,2 53156  53.2175 120.9542 0001931  59.7608 300.3575 15.08843527 21848,6917.87,95.437,541.07,538.399,0.0
53156.0,STARLINK-4087,PAYLOAD,2022-12-02 16:11:11,15.08845801,0.0002013,53.2174,119.765,59.5765,300.5426,5.1979e-05,5.39e-06,0.0,0 STARLINK-4087,1 53156U 22083AA  22336.67443451  .00000539  00000-0  51979-4 0  9997,2 53156  53.2174 119.7650 0002013  59.5765 300.5426 15.08845801 21256,6917.863,95.437,541.12,538.335,0.0
53156.0,STARLINK-4087,PAYLOAD,2022-12-03 09:40:26,15.08840431,0.0002025,53.2155,116.494,57.283,302.8357,-0.00013524,-2.44e-05,0.0,0 STARLINK-4087,1 53156U 22083AA  22337.40308320 -.00002440  00000-0 -13524-3 0  9992,2 53156  53.2155 116.4940 0002025  57.2830 302.8357 15.08840431 21995,6917.879,95.438,541.145,538.3430000000002,0.0
53156.0,STARLINK-4087,PAYLOAD,2022-12-03 12:51:12,15.08840406,0.0002122,53.2154,115.8992,59.7363,300.3839,-7.4799e-05,-1.479e-05,0.0,0 STARLINK-4087,1 53156U 22083AA  22337.53556157 -.00001479  00000-0 -74799-4 0  9992,2 53156  53.2154 115.8992 0002122  59.7363 300.3839 15.08840406 21383,6917.879,95.438,541.212,538.276,0.0
53156.0,STARLINK-4087,PAYLOAD,2022-12-03 16:01:58,15.08842627,0.0001943,53.2174,115.3045,57.0837,303.0342,-3.3022e-05,-8.14e-06,0.0,0 STARLINK-4087,1 53156U 22083AA  22337.66803820 -.00000814  00000-0 -33022-4 0  9994,2 53156  53.2174 115.3045 0001943  57.0837 303.0342 15.08842627 21405,6917.871999999999,95.437,541.082,538.393,0.0
53156.0,STARLINK-4087,PAYLOAD,2022-12-03 20:48:07,15.0884554,0.0001962,53.2178,114.4126,57.0026,303.1155,-1.687e-05,-5.57e-06,0.0,0 STARLINK-4087,1 53156U 22083AA  22337.86675570 -.00000557  00000-0 -16870-4 0  9991,2 53156  53.2178 114.4126 0001962  57.0026 303.1155 15.08845540 22063,6917.863,95.437,541.086,538.371,0.0
53156.0,STARLINK-4087,PAYLOAD,2022-12-04 09:31:13,15.08831697,0.0001881,53.22,112.0349,57.4958,302.6216,2.5719e-05,1.21e-06,0.0,0 STARLINK-4087,1 53156U 22083AA  22338.39668351  .00000121  00000-0  25719-4 0  9996,2 53156  53.2200 112.0349 0001881  57.4958 302.6216 15.08831697 22147,6917.906,95.438,541.072,538.47,0.0
53156.0,STARLINK-4087,PAYLOAD,2022-12-04 15:52:46,15.08834421,0.0001954,53.2188,110.8445,57.9737,302.1445,-1.7567e-07,-2.91e-06,0.0,0 STARLINK-4087,1 53156U 22083AA  22338.66164371 -.00000291  00000-0 -17567-6 0  9993,2 53156  53.2188 110.8445 0001954  57.9737 302.1445 15.08834421 21557,6917.897,95.438,541.114,538.411,0.0
53156.0,STARLINK-4087,PAYLOAD,2022-12-05 09:21:59,15.08846482,0.0001958,53.2191,107.5734,54.4176,305.6999,9.3609e-05,1.202e-05,0.0,0 STARLINK-4087,1 53156U 22083AA  22339.39027504  .00001202  00000-0  93609-4 0  9990,2 53156  53.2191 107.5734 0001958  54.4176 305.6999 15.08846482 22292,6917.861,95.437,541.08,538.371,0.0
53156.0,STARLINK-4087,PAYLOAD,2022-12-05 15:43:32,15.08845399,0.0001965,53.2192,106.384,54.6686,305.4489,0.00010646,1.407e-05,0.0,0 STARLINK-4087,1 53156U 22083AA  22339.65523471  .00001407  00000-0  10646-3 0  9999,2 53156  53.2192 106.3840 0001965  54.6686 305.4489 15.08845399 21707,6917.864000000001,95.437,541.0880000000002,538.37,0.0
53156.0,STARLINK-4087,PAYLOAD,2022-12-06 01:15:51,15.08842221,0.0001944,53.2187,104.6002,53.7932,306.3239,2.7848e-05,1.55e-06,0.0,0 STARLINK-4087,1 53156U 22083AA  22340.05267817  .00000155  00000-0  27848-4 0  9996,2 53156  53.2187 104.6002 0001944  53.7932 306.3239 15.08842221 22393,6917.874,95.437,541.0830000000002,538.394,0.0
53156.0,STARLINK-4087,PAYLOAD,2022-12-06 07:37:23,15.0883946,0.0001859,53.2188,103.411,53.1199,306.9964,9.929e-05,1.292e-05,0.0,0 STARLINK-4087,1 53156U 22083AA  22340.31763799  .00001292  00000-0  99290-4 0  9998,2 53156  53.2188 103.4110 0001859  53.1199 306.9964 15.08839460 21802,6917.882,95.438,541.033,538.461,0.0
53156.0,STARLINK-4087,PAYLOAD,2022-12-06 15:34:19,15.08836988,0.0001895,53.2186,101.9237,52.4245,307.6919,3.322e-05,2.41e-06,0.0,0 STARLINK-4087,1 53156U 22083AA  22340.64884256  .00000241  00000-0  33220-4 0  9990,2 53156  53.2186 101.9237 0001895  52.4245 307.6919 15.08836988 22482,6917.89,95.438,541.066,538.444,0.0
53156.0,STARLINK-4087,PAYLOAD,2022-12-07 09:03:34,15.08836987,0.000193,53.2188,98.6534,49.1426,310.9733,-4.6666e-05,-1.031e-05,0.0,0 STARLINK-4087,1 53156U 22083AA  22341.37748742 -.00001031  00000-0 -46666-4 0  9998,2 53156  53.2188  98.6534 0001930  49.1426 310.9733 15.08836987 21962,6917.89,95.438,541.09,538.419,0.0
53156.0,STARLINK-4087,PAYLOAD,2022-12-07 20:11:16,15.08839161,0.0001992,53.2194,96.5707,48.8284,311.2879,-2.6611e-05,-7.12e-06,0.0,0 STARLINK-4087,1 53156U 22083AA  22341.84116504 -.00000712  00000-0 -26611-4 0  9998,2 53156  53.2194  96.5707 0001992  48.8284 311.2879 15.08839161 22664,6917.8830000000025,95.438,541.126,538.37,0.0
53156.0,STARLINK-4087,PAYLOAD,2022-12-08 13:40:29,15.08853969,0.0001934,53.22,93.304,48.0383,312.0773,0.00043136,6.586e-05,0.0,0 STARLINK-4087,1 53156U 22083AA  22342.56978534  .00006586  00000-0  43136-3 0  9990,2 53156  53.2200  93.3040 0001934  48.0383 312.0773 15.08853969 22142,6917.8380000000025,95.437,541.0409999999998,538.365,0.0
53156.0,STARLINK-4087,PAYLOAD,2022-12-09 00:48:11,15.08845725,0.0001491,53.2198,91.2216,28.2353,331.872,0.00022496,3.295e-05,0.0,0 STARLINK-4087,1 53156U 22083AA  22343.03346898  .00003295  00000-0  22496-3 0  9995,2 53156  53.2198  91.2216 0001491  28.2353 331.8720 15.08845725 22844,6917.863,95.437,540.759,538.696,0.0
53156.0,STARLINK-4087,PAYLOAD,2022-12-09 07:09:47,15.08802062,0.0002539,53.22,90.0328,359.7118,0.3872,-0.00022839,-3.918e-05,0.0,0 STARLINK-4087,1 53156U 22083AA  22343.29846974 -.00003918  00000-0 -22839-3 0  9998,2 53156  53.2200  90.0328 0002539 359.7118   0.3872 15.08802062 22252,6917.996,95.44,541.618,538.105,0.0
53156.0,STARLINK-4087,PAYLOAD,2022-12-10 10:11:20,15.08826652,0.0002334,53.2197,84.9788,29.2145,330.8978,-0.00013421,-2.423e-05,0.0,0 STARLINK-4087,1 53156U 22083AA  22344.42454115 -.00002423  00000-0 -13421-3 0  9993,2 53156  53.2197  84.9788 0002334  29.2145 330.8978 15.08826652 23059,6917.920999999999,95.438,541.401,538.172,0.0
53156.0,STARLINK-4087,PAYLOAD,2022-12-10 13:22:06,15.08832013,0.0001946,53.2205,84.3835,52.1164,308.0004,-0.00010741,-1.997e-05,0.0,0 STARLINK-4087,1 53156U 22083AA  22344.55701688 -.00001997  00000-0 -10741-3 0  9994,2 53156  53.2205  84.3835 0001946  52.1164 308.0004 15.08832013 22447,6917.905,95.438,541.116,538.424,0.0
53156.0,STARLINK-4087,PAYLOAD,2022-12-10 18:08:15,15.08841543,0.0001904,53.219,83.4884,47.2867,312.8285,-4.8574e-05,-1.061e-05,0.0,0 STARLINK-4087,1 53156U 22083AA  22344.75573083 -.00001061  00000-0 -48574-4 0  9990,2 53156  53.2190  83.4884 0001904  47.2867 312.8285 15.08841543 22478,6917.876,95.437,541.058,538.424,0.0
